[{"OBJECT_NAME":"CHUANGXIN-3 (CX-3)","OBJECT_ID":"2013-037B","EPOCH":"2026-03-09T23:41:48.559776","MEAN_MOTION":14.74394744,"ECCENTRICITY":0.00055411,"INCLINATION":98.084,"RA_OF_ASC_NODE":75.4374,"ARG_OF_PERICENTER":91.0798,"MEAN_ANOMALY":269.1045,"EPHEMERIS_TYPE":0,"CLASSIFICATION_TYPE":"U","NORAD_CAT_ID":39209,"ELEMENT_SET_NO":999,"REV_AT_EPOCH":67773,"BSTAR":0.00024158213,"MEAN_MOTION_DOT":1.551e-5,"MEAN_MOTION_DDOT":0},{"OBJECT_NAME":"IRIDIUM 33 DEB","OBJECT_ID":"1997-051VU","EPOCH":"2026-03-01T06:56:50.102592","MEAN_MOTION":14.74753978,"ECCENTRICITY":0.0027954,"INCLINATION":86.2859,"RA_OF_ASC_NODE":263.3476,"ARG_OF_PERICENTER":255.4751,"MEAN_ANOMALY":104.3366,"EPHEMERIS_TYPE":0,"CLASSIFICATION_TYPE":"U","NORAD_CAT_ID":36390,"ELEMENT_SET_NO":999,"REV_AT_EPOCH":67419,"BSTAR":0.00088857,"MEAN_MOTION_DOT":6.003e-5,"MEAN_MOTION_DDOT":0}]
